{
  "type": "FeatureCollection",
  "features": [
    {
      "type": "Feature",
      "geometry": {
        "type": "Point",
        "coordinates": [
          -87.9887,
          41.9307
        ]
      },
      "properties": {
        "facility_id": 1,
        "facility_name": "Addison Ice Arena",
        "full_address": "475 S Grace St, Addison, IL 60101",
        "location_type": "rink"
      }
    },
    {
      "type": "Feature",
      "geometry": {
        "type": "Point",
        "coordinates": [
          -88.228,
          41.8048
        ]
      },
      "properties": {
        "facility_id": 2,
        "facility_name": "All Seasons Ice Rinks",
        "full_address": "31W330 N Aurora Rd, Naperville, IL 60563",
        "location_type": "rink"
      }
    },
    {
      "type": "Feature",
      "geometry": {
        "type": "Point",
        "coordinates": [
          -87.73,
          42.0145
        ]
      },
      "properties": {
        "facility_id": 3,
        "facility_name": "American Heartland Ice Arena",
        "full_address": "7384 Lincoln Ave, Lincolnwood, IL 60712",
        "location_type": "rink"
      }
    },
    {
      "type": "Feature",
      "geometry": {
        "type": "Point",
        "coordinates": [
          -87.8896,
          41.6005
        ]
      },
      "properties": {
        "facility_id": 4,
        "facility_name": "Arctic Ice Arena",
        "full_address": "10700 W 160th St, Orland Park, IL 60467",
        "location_type": "rink"
      }
    },
    {
      "type": "Feature",
      "geometry": {
        "type": "Point",
        "coordinates": [
          -88.1305,
          42.1509
        ]
      },
      "properties": {
        "facility_id": 5,
        "facility_name": "Barrington Ice Arena",
        "full_address": "28W205 W Commercial Ave, Barrington, IL 60010",
        "location_type": "rink"
      }
    },
    {
      "type": "Feature",
      "geometry": {
        "type": "Point",
        "coordinates": [
          -87.6723,
          41.8777
        ]
      },
      "properties": {
        "facility_id": 6,
        "facility_name": "Blackhawks Ice Center",
        "full_address": "1801 W Jackson Blvd, Chicago, IL 60612",
        "location_type": "rink"
      }
    },
    {
      "type": "Feature",
      "geometry": {
        "type": "Point",
        "coordinates": [
          -88.2896,
          42.0995
        ]
      },
      "properties": {
        "facility_id": 7,
        "facility_name": "Canlan Sports Center – West Dundee",
        "full_address": "801 Wesemann Dr, West Dundee, IL 60118",
        "location_type": "rink"
      }
    },
    {
      "type": "Feature",
      "geometry": {
        "type": "Point",
        "coordinates": [
          -88.11,
          41.638
        ]
      },
      "properties": {
        "facility_id": 8,
        "facility_name": "Canlan Sports Romeoville",
        "full_address": "1581 Normantown Rd, Romeoville, IL 60446",
        "location_type": "rink"
      }
    },
    {
      "type": "Feature",
      "geometry": {
        "type": "Point",
        "coordinates": [
          -87.819,
          42.201
        ]
      },
      "properties": {
        "facility_id": 9,
        "facility_name": "Centennial Ice Arena – Highland Park",
        "full_address": "3100 Trail Way, Highland Park, IL 60035",
        "location_type": "rink"
      }
    },
    {
      "type": "Feature",
      "geometry": {
        "type": "Point",
        "coordinates": [
          -88.058,
          41.889
        ]
      },
      "properties": {
        "facility_id": 10,
        "facility_name": "Center Ice of DuPage",
        "full_address": "1N450 Highland Ave, Glen Ellyn, IL 60137",
        "location_type": "rink"
      }
    },
    {
      "type": "Feature",
      "geometry": {
        "type": "Point",
        "coordinates": [
          -88.319,
          42.242
        ]
      },
      "properties": {
        "facility_id": 11,
        "facility_name": "Crystal Ice House Arena",
        "full_address": "320 Prairie St, Crystal Lake, IL 60014",
        "location_type": "rink"
      }
    },
    {
      "type": "Feature",
      "geometry": {
        "type": "Point",
        "coordinates": [
          -87.9814,
          41.7493
        ]
      },
      "properties": {
        "facility_id": 12,
        "facility_name": "Darien Sports Complex",
        "full_address": "451 Plainfield Rd, Darien, IL 60561",
        "location_type": "rink"
      }
    },
    {
      "type": "Feature",
      "geometry": {
        "type": "Point",
        "coordinates": [
          -87.9397,
          41.9593
        ]
      },
      "properties": {
        "facility_id": 13,
        "facility_name": "Edge on John Ice Arena",
        "full_address": "545 John St, Bensenville, IL 60106",
        "location_type": "rink"
      }
    },
    {
      "type": "Feature",
      "geometry": {
        "type": "Point",
        "coordinates": [
          -88.2804,
          41.8586
        ]
      },
      "properties": {
        "facility_id": 14,
        "facility_name": "Fox Valley Ice Rink",
        "full_address": "1996 S Kirk Rd, Geneva, IL 60134",
        "location_type": "rink"
      }
    },
    {
      "type": "Feature",
      "geometry": {
        "type": "Point",
        "coordinates": [
          -87.8665,
          41.9475
        ]
      },
      "properties": {
        "facility_id": 15,
        "facility_name": "Franklin Park Ice Arena",
        "full_address": "9711 Waveland Ave, Franklin Park, IL 60131",
        "location_type": "rink"
      }
    },
    {
      "type": "Feature",
      "geometry": {
        "type": "Point",
        "coordinates": [
          -87.9585,
          42.2261
        ]
      },
      "properties": {
        "facility_id": 16,
        "facility_name": "Glacier Ice Arena",
        "full_address": "670 Lakeview Pkwy, Vernon Hills, IL 60061",
        "location_type": "rink"
      }
    },
    {
      "type": "Feature",
      "geometry": {
        "type": "Point",
        "coordinates": [
          -87.85,
          42.091
        ]
      },
      "properties": {
        "facility_id": 17,
        "facility_name": "Glenview Community Ice Center",
        "full_address": "1851 Landwehr Rd, Glenview, IL 60026",
        "location_type": "rink"
      }
    },
    {
      "type": "Feature",
      "geometry": {
        "type": "Point",
        "coordinates": [
          -88.146,
          41.522
        ]
      },
      "properties": {
        "facility_id": 18,
        "facility_name": "Inwood Ice Arena",
        "full_address": "3000 W Jefferson St, Joliet, IL 60435",
        "location_type": "rink"
      }
    },
    {
      "type": "Feature",
      "geometry": {
        "type": "Point",
        "coordinates": [
          -87.691,
          41.8812
        ]
      },
      "properties": {
        "facility_id": 19,
        "facility_name": "Johnny’s Ice House West",
        "full_address": "2550 W Madison St, Chicago, IL 60612",
        "location_type": "rink"
      }
    },
    {
      "type": "Feature",
      "geometry": {
        "type": "Point",
        "coordinates": [
          -87.8691,
          42.2405
        ]
      },
      "properties": {
        "facility_id": 20,
        "facility_name": "MacKenzie Ice Arena (LFA)",
        "full_address": "1500 Kennedy Rd, Lake Forest, IL 60045",
        "location_type": "rink"
      }
    },
    {
      "type": "Feature",
      "geometry": {
        "type": "Point",
        "coordinates": [
          -87.68,
          41.6835
        ]
      },
      "properties": {
        "facility_id": 21,
        "facility_name": "Morgan Park Sports Center",
        "full_address": "11505 S Western Ave, Chicago, IL 60643",
        "location_type": "rink"
      }
    },
    {
      "type": "Feature",
      "geometry": {
        "type": "Point",
        "coordinates": [
          -87.94,
          42.0834
        ]
      },
      "properties": {
        "facility_id": 22,
        "facility_name": "Mount Prospect Ice Arena",
        "full_address": "1501 Feehanville Dr, Mount Prospect, IL 60056",
        "location_type": "rink"
      }
    },
    {
      "type": "Feature",
      "geometry": {
        "type": "Point",
        "coordinates": [
          -87.831,
          42.132
        ]
      },
      "properties": {
        "facility_id": 23,
        "facility_name": "North Shore Ice Arena",
        "full_address": "2111 Founders Dr, Northbrook, IL 60062",
        "location_type": "rink"
      }
    },
    {
      "type": "Feature",
      "geometry": {
        "type": "Point",
        "coordinates": [
          -87.737,
          41.7225
        ]
      },
      "properties": {
        "facility_id": 24,
        "facility_name": "Oak Lawn Ice Arena",
        "full_address": "9320 S Kenton Ave, Oak Lawn, IL 60453",
        "location_type": "rink"
      }
    },
    {
      "type": "Feature",
      "geometry": {
        "type": "Point",
        "coordinates": [
          -87.859,
          42.026
        ]
      },
      "properties": {
        "facility_id": 25,
        "facility_name": "Oakton Ice Arena",
        "full_address": "2800 Oakton St, Park Ridge, IL 60068",
        "location_type": "rink"
      }
    },
    {
      "type": "Feature",
      "geometry": {
        "type": "Point",
        "coordinates": [
          -88.043,
          42.101
        ]
      },
      "properties": {
        "facility_id": 26,
        "facility_name": "Orbit Ice Arena",
        "full_address": "615 S Consumers Ave, Palatine, IL 60074",
        "location_type": "rink"
      }
    },
    {
      "type": "Feature",
      "geometry": {
        "type": "Point",
        "coordinates": [
          -87.933,
          42.532
        ]
      },
      "properties": {
        "facility_id": 27,
        "facility_name": "Pleasant Prairie RecPlex",
        "full_address": "9900 Terwall Terrace, Pleasant Prairie, WI 53158",
        "location_type": "rink"
      }
    },
    {
      "type": "Feature",
      "geometry": {
        "type": "Point",
        "coordinates": [
          -87.699,
          42.0332
        ]
      },
      "properties": {
        "facility_id": 28,
        "facility_name": "Robert Crown Community Center",
        "full_address": "1801 Main St, Evanston, IL 60202",
        "location_type": "rink"
      }
    },
    {
      "type": "Feature",
      "geometry": {
        "type": "Point",
        "coordinates": [
          -88.082,
          41.7005
        ]
      },
      "properties": {
        "facility_id": 29,
        "facility_name": "Rocket Ice Skating Rink",
        "full_address": "180 Canterbury Ln, Bolingbrook, IL 60440",
        "location_type": "rink"
      }
    },
    {
      "type": "Feature",
      "geometry": {
        "type": "Point",
        "coordinates": [
          -87.873,
          41.994
        ]
      },
      "properties": {
        "facility_id": 30,
        "facility_name": "Rosemont Ice Arena",
        "full_address": "7115 Barry St, Rosemont, IL 60018",
        "location_type": "rink"
      }
    },
    {
      "type": "Feature",
      "geometry": {
        "type": "Point",
        "coordinates": [
          -88.124,
          42.052
        ]
      },
      "properties": {
        "facility_id": 31,
        "facility_name": "Scott R. Triphahn Community Center",
        "full_address": "1685 W Higgins Rd, Hoffman Estates, IL 60169",
        "location_type": "rink"
      }
    },
    {
      "type": "Feature",
      "geometry": {
        "type": "Point",
        "coordinates": [
          -88.071,
          41.768
        ]
      },
      "properties": {
        "facility_id": 32,
        "facility_name": "Seven Bridges Ice Arena",
        "full_address": "6690 IL-53, Woodridge, IL 60517",
        "location_type": "rink"
      }
    },
    {
      "type": "Feature",
      "geometry": {
        "type": "Point",
        "coordinates": [
          -87.756,
          41.659
        ]
      },
      "properties": {
        "facility_id": 33,
        "facility_name": "Southwest Ice Arena",
        "full_address": "5505 W 127th St, Crestwood, IL 60418",
        "location_type": "rink"
      }
    },
    {
      "type": "Feature",
      "geometry": {
        "type": "Point",
        "coordinates": [
          -87.929,
          41.9516
        ]
      },
      "properties": {
        "facility_id": 34,
        "facility_name": "The Edge Ice Arena",
        "full_address": "735 E Jefferson St, Bensenville, IL 60106",
        "location_type": "rink"
      }
    },
    {
      "type": "Feature",
      "geometry": {
        "type": "Point",
        "coordinates": [
          -87.94,
          42.37
        ]
      },
      "properties": {
        "facility_id": 35,
        "facility_name": "Top Shelf Ice Arena",
        "full_address": "6152 W Grand Ave, Gurnee, IL 60031",
        "location_type": "rink"
      }
    },
    {
      "type": "Feature",
      "geometry": {
        "type": "Point",
        "coordinates": [
          -87.864201,
          42.150466
        ]
      },
      "properties": {
        "facility_id": "H",
        "facility_name": "Embassy Suites by Hilton Chicago North Shore Deerfield",
        "full_address": "1445 Lake Cook Road, Deerfield, IL 60015",
        "location_type": "hotel"
      }
    }
  ]
}